ONEWEB-0240             
1 48785U 21045U   24060.57486107 -.00000061  00000+0 -19621-3 0  9994
2 48785  87.8948  66.0778 0001674  75.0255 285.1060 13.15549669134148
ONEWEB-0214             
1 48788U 21045X   24060.55346779  .00000106  00000+0  24627-3 0  9995
2 48788  87.8948  66.0801 0002559  81.6203 278.5217 13.15549616134026
ONEWEB-0221             
1 48789U 21045Y   24060.55980116  .00000018  00000+0  14339-4 0  9997
2 48789  87.8951  66.0940 0001887  79.9220 280.2123 13.15546484135259
ONEWEB-0213             
1 48790U 21045Z   24060.54872100  .00000102  00000+0  23617-3 0  9993
2 48790  87.8949  66.1117 0001967  76.0834 284.0515 13.15546879134178
ONEWEB-0212             
1 48791U 21045AA  24060.52574359  .00000089  00000+0  20152-3 0  9992
2 48791  87.8949  66.0967 0001828  91.0032 269.1307 13.15549578134165
ONEWEB-0227             
1 48792U 21045AB  24060.52494511  .00000103  00000+0  24052-3 0  9994
2 48792  87.8948  66.1136 0001809  85.1771 274.9565 13.15549882134110
